HAWK-A                  
1 43765U 18099H   26068.67628545  .00008617  00000+0  36104-3 0  9995
2 43765  97.4051 122.2425 0034260 275.5523  84.1807 15.23231043397949
STARLINK-35547          
1 66119U 25237F   26068.24399068  .00015805  00000+0  54465-3 0  9990
2 66119  53.1620  41.6006 0001250  92.6754 267.4390 15.30197249 22545
